{
  "norad_id": 39151,
  "name": "NEE-01 PEGASO",
  "history": [
    {
      "epoch": "2026-03-28T07:54:56.086848Z",
      "apogee_km": 597.464994383141,
      "perigee_km": 578.3095422092101,
      "latitude_deg": -5.520858858669919e-05,
      "longitude_deg": -75.59610438746,
      "height_km": 588.1590046930985,
      "semi_major_axis_km": 6966.024268296175,
      "eccentricity": 0.00137492,
      "inclination_deg": 98.1084,
      "raan_deg": 228.8894,
      "arg_perigee_deg": 73.4438,
      "mean_anomaly_deg": 286.8289,
      "mean_motion_rev_day": 14.9322512
    },
    {
      "epoch": "2026-03-29T20:54:18.108288Z",
      "apogee_km": 597.4791016847039,
      "perigee_km": 578.1972823531951,
      "latitude_deg": -2.6570673059258333e-05,
      "longitude_deg": 89.63173298733277,
      "height_km": 587.3786544925892,
      "semi_major_axis_km": 6965.975192018949,
      "eccentricity": 0.001384,
      "inclination_deg": 98.1088,
      "raan_deg": 230.4781,
      "arg_perigee_deg": 68.9604,
      "mean_anomaly_deg": 291.3093,
      "mean_motion_rev_day": 14.932409
    },
    {
      "epoch": "2026-03-29T20:54:18.109152Z",
      "apogee_km": 597.4791713444556,
      "perigee_km": 578.1972126934434,
      "latitude_deg": -2.764021580450066e-05,
      "longitude_deg": 89.63172952903003,
      "height_km": 587.3786294798971,
      "semi_major_axis_km": 6965.975192018949,
      "eccentricity": 0.00138401,
      "inclination_deg": 98.1088,
      "raan_deg": 230.4781,
      "arg_perigee_deg": 68.9604,
      "mean_anomaly_deg": 291.3093,
      "mean_motion_rev_day": 14.932409
    },
    {
      "epoch": "2026-03-30T08:09:45.383040Z",
      "apogee_km": 597.4676009913401,
      "perigee_km": 578.1812222694152,
      "latitude_deg": -4.8707339303648966e-05,
      "longitude_deg": -79.21054044832347,
      "height_km": 587.1354448361892,
      "semi_major_axis_km": 6965.961411630377,
      "eccentricity": 0.00138433,
      "inclination_deg": 98.109,
      "raan_deg": 230.9618,
      "arg_perigee_deg": 67.4953,
      "mean_anomaly_deg": 292.7729,
      "mean_motion_rev_day": 14.93245331
    },
    {
      "epoch": "2026-03-30T21:01:42.064320Z",
      "apogee_km": 597.448664007813,
      "perigee_km": 578.1610855073086,
      "latitude_deg": 3.137272948593382e-05,
      "longitude_deg": 87.82749945955686,
      "height_km": 586.8649720616658,
      "semi_major_axis_km": 6965.941874757561,
      "eccentricity": 0.00138442,
      "inclination_deg": 98.1092,
      "raan_deg": 231.5144,
      "arg_perigee_deg": 65.8705,
      "mean_anomaly_deg": 294.396,
      "mean_motion_rev_day": 14.93251613
    },
    {
      "epoch": "2026-03-31T08:17:09.026304Z",
      "apogee_km": 597.3807555138001,
      "perigee_km": 578.20216128214,
      "latitude_deg": 3.307350252267717e-05,
      "longitude_deg": -81.01367041683363,
      "height_km": 586.6292504437001,
      "semi_major_axis_km": 6965.92845839797,
      "eccentricity": 0.0013766,
      "inclination_deg": 98.1092,
      "raan_deg": 231.9979,
      "arg_perigee_deg": 64.2541,
      "mean_anomaly_deg": 296.0097,
      "mean_motion_rev_day": 14.93255927
    }
  ]
}